[{"OBJECT_NAME":"SL-14 R/B","OBJECT_ID":"1986-006B","EPOCH":"2026-03-02T23:48:57.239424","MEAN_MOTION":14.86804351,"ECCENTRICITY":0.0075211,"INCLINATION":82.5235,"RA_OF_ASC_NODE":266.0422,"ARG_OF_PERICENTER":295.4501,"MEAN_ANOMALY":63.8946,"EPHEMERIS_TYPE":0,"CLASSIFICATION_TYPE":"U","NORAD_CAT_ID":16496,"ELEMENT_SET_NO":999,"REV_AT_EPOCH":14821,"BSTAR":7.3112e-5,"MEAN_MOTION_DOT":7.11e-6,"MEAN_MOTION_DDOT":0},{"OBJECT_NAME":"COSMOS 1743","OBJECT_ID":"1986-034A","EPOCH":"2026-03-03T02:12:33.626304","MEAN_MOTION":15.58006897,"ECCENTRICITY":0.0002237,"INCLINATION":82.5291,"RA_OF_ASC_NODE":80.7529,"ARG_OF_PERICENTER":339.0827,"MEAN_ANOMALY":21.0336,"EPHEMERIS_TYPE":0,"CLASSIFICATION_TYPE":"U","NORAD_CAT_ID":16719,"ELEMENT_SET_NO":999,"REV_AT_EPOCH":17922,"BSTAR":0.00049508,"MEAN_MOTION_DOT":0.00037226,"MEAN_MOTION_DDOT":0},{"OBJECT_NAME":"SL-14 R/B","OBJECT_ID":"1986-046B","EPOCH":"2026-03-03T03:20:23.671968","MEAN_MOTION":14.85582619,"ECCENTRICITY":0.0021638,"INCLINATION":82.4782,"RA_OF_ASC_NODE":86.3731,"ARG_OF_PERICENTER":248.2794,"MEAN_ANOMALY":111.6119,"EPHEMERIS_TYPE":0,"CLASSIFICATION_TYPE":"U","NORAD_CAT_ID":16792,"ELEMENT_SET_NO":999,"REV_AT_EPOCH":12543,"BSTAR":6.0912e-5,"MEAN_MOTION_DOT":5.53e-6,"MEAN_MOTION_DDOT":0},{"OBJECT_NAME":"SL-14 R/B","OBJECT_ID":"1986-055B","EPOCH":"2026-03-03T04:40:11.201376","MEAN_MOTION":14.85635447,"ECCENTRICITY":0.0018747,"INCLINATION":82.5212,"RA_OF_ASC_NODE":132.7786,"ARG_OF_PERICENTER":358.5028,"MEAN_ANOMALY":21.3665,"EPHEMERIS_TYPE":0,"CLASSIFICATION_TYPE":"U","NORAD_CAT_ID":16882,"ELEMENT_SET_NO":999,"REV_AT_EPOCH":11840,"BSTAR":6.0035e-5,"MEAN_MOTION_DOT":5.45e-6,"MEAN_MOTION_DDOT":0},{"OBJECT_NAME":"AJISAI (EGS)","OBJECT_ID":"1986-061A","EPOCH":"2026-03-03T04:55:44.488128","MEAN_MOTION":12.44515527,"ECCENTRICITY":0.0011249,"INCLINATION":50.008,"RA_OF_ASC_NODE":113.2876,"ARG_OF_PERICENTER":270.296,"MEAN_ANOMALY":135.4771,"EPHEMERIS_TYPE":0,"CLASSIFICATION_TYPE":"U","NORAD_CAT_ID":16908,"ELEMENT_SET_NO":999,"REV_AT_EPOCH":46719,"BSTAR":0.00014799,"MEAN_MOTION_DOT":-7.6e-7,"MEAN_MOTION_DDOT":0},{"OBJECT_NAME":"COSMOS 1812","OBJECT_ID":"1987-003A","EPOCH":"2026-03-03T07:26:14.907264","MEAN_MOTION":16.23100629,"ECCENTRICITY":0.0007632,"INCLINATION":82.4718,"RA_OF_ASC_NODE":202.9133,"ARG_OF_PERICENTER":288.9282,"MEAN_ANOMALY":71.1181,"EPHEMERIS_TYPE":0,"CLASSIFICATION_TYPE":"U","NORAD_CAT_ID":17295,"ELEMENT_SET_NO":999,"REV_AT_EPOCH":14345,"BSTAR":0.00075298,"MEAN_MOTION_DOT":0.01811126,"MEAN_MOTION_DDOT":-1.2154e-6},{"OBJECT_NAME":"SL-14 R/B","OBJECT_ID":"1987-024B","EPOCH":"2026-03-03T04:11:56.176800","MEAN_MOTION":14.86124633,"ECCENTRICITY":0.0016688,"INCLINATION":82.5253,"RA_OF_ASC_NODE":98.8885,"ARG_OF_PERICENTER":283.4998,"MEAN_ANOMALY":76.4359,"EPHEMERIS_TYPE":0,"CLASSIFICATION_TYPE":"U","NORAD_CAT_ID":17567,"ELEMENT_SET_NO":999,"REV_AT_EPOCH":8716,"BSTAR":5.8038e-5,"MEAN_MOTION_DOT":5.34e-6,"MEAN_MOTION_DDOT":0},{"OBJECT_NAME":"COSMOS 1833","OBJECT_ID":"1987-027A","EPOCH":"2026-03-03T03:14:46.877856","MEAN_MOTION":14.13056165,"ECCENTRICITY":0.0024562,"INCLINATION":70.9233,"RA_OF_ASC_NODE":339.7933,"ARG_OF_PERICENTER":223.6095,"MEAN_ANOMALY":136.3086,"EPHEMERIS_TYPE":0,"CLASSIFICATION_TYPE":"U","NORAD_CAT_ID":17589,"ELEMENT_SET_NO":999,"REV_AT_EPOCH":939,"BSTAR":-4.4246e-5,"MEAN_MOTION_DOT":-1.31e-6,"MEAN_MOTION_DDOT":0},{"OBJECT_NAME":"SL-16 R/B","OBJECT_ID":"1987-027B","EPOCH":"2026-03-03T01:22:34.412736","MEAN_MOTION":14.17166526,"ECCENTRICITY":0.0003734,"INCLINATION":71.002,"RA_OF_ASC_NODE":290.4721,"ARG_OF_PERICENTER":156.878,"MEAN_ANOMALY":203.2513,"EPHEMERIS_TYPE":0,"CLASSIFICATION_TYPE":"U","NORAD_CAT_ID":17590,"ELEMENT_SET_NO":999,"REV_AT_EPOCH":1440,"BSTAR":-6.789e-5,"MEAN_MOTION_DOT":-1.85e-6,"MEAN_MOTION_DDOT":0},{"OBJECT_NAME":"SL-14 R/B","OBJECT_ID":"1987-038B","EPOCH":"2026-03-03T03:59:52.122336","MEAN_MOTION":14.8536234,"ECCENTRICITY":0.001911,"INCLINATION":82.5014,"RA_OF_ASC_NODE":302.9529,"ARG_OF_PERICENTER":181.7294,"MEAN_ANOMALY":178.386,"EPHEMERIS_TYPE":0,"CLASSIFICATION_TYPE":"U","NORAD_CAT_ID":17912,"ELEMENT_SET_NO":999,"REV_AT_EPOCH":7826,"BSTAR":5.6822e-5,"MEAN_MOTION_DOT":5.14e-6,"MEAN_MOTION_DDOT":0},{"OBJECT_NAME":"COSMOS 1844","OBJECT_ID":"1987-041A","EPOCH":"2026-03-03T04:15:26.907264","MEAN_MOTION":14.14553162,"ECCENTRICITY":0.0029645,"INCLINATION":70.8994,"RA_OF_ASC_NODE":47.9111,"ARG_OF_PERICENTER":27.6868,"MEAN_ANOMALY":332.5824,"EPHEMERIS_TYPE":0,"CLASSIFICATION_TYPE":"U","NORAD_CAT_ID":17973,"ELEMENT_SET_NO":999,"REV_AT_EPOCH":266,"BSTAR":-1.6681e-5,"MEAN_MOTION_DOT":-8.1e-7,"MEAN_MOTION_DDOT":0},{"OBJECT_NAME":"SL-14 R/B","OBJECT_ID":"1987-055B","EPOCH":"2026-03-02T21:00:21.927456","MEAN_MOTION":14.85619377,"ECCENTRICITY":0.0021702,"INCLINATION":82.5028,"RA_OF_ASC_NODE":355.4518,"ARG_OF_PERICENTER":39.5602,"MEAN_ANOMALY":320.7193,"EPHEMERIS_TYPE":0,"CLASSIFICATION_TYPE":"U","NORAD_CAT_ID":18153,"ELEMENT_SET_NO":999,"REV_AT_EPOCH":6892,"BSTAR":7.7938e-5,"MEAN_MOTION_DOT":7.02e-6,"MEAN_MOTION_DDOT":0},{"OBJECT_NAME":"COSMOS 1867","OBJECT_ID":"1987-060A","EPOCH":"2026-03-03T03:41:22.184736","MEAN_MOTION":14.3150179,"ECCENTRICITY":0.0014388,"INCLINATION":65.012,"RA_OF_ASC_NODE":325.0088,"ARG_OF_PERICENTER":278.2415,"MEAN_ANOMALY":81.7037,"EPHEMERIS_TYPE":0,"CLASSIFICATION_TYPE":"U","NORAD_CAT_ID":18187,"ELEMENT_SET_NO":999,"REV_AT_EPOCH":1900,"BSTAR":4.014e-5,"MEAN_MOTION_DOT":7.0e-8,"MEAN_MOTION_DDOT":0},{"OBJECT_NAME":"SL-14 R/B","OBJECT_ID":"1988-001B","EPOCH":"2026-03-02T20:52:54.108480","MEAN_MOTION":14.85517506,"ECCENTRICITY":0.0016597,"INCLINATION":82.5141,"RA_OF_ASC_NODE":201.7729,"ARG_OF_PERICENTER":260.1534,"MEAN_ANOMALY":99.7809,"EPHEMERIS_TYPE":0,"CLASSIFICATION_TYPE":"U","NORAD_CAT_ID":18749,"ELEMENT_SET_NO":999,"REV_AT_EPOCH":4101,"BSTAR":7.8558e-5,"MEAN_MOTION_DOT":7.03e-6,"MEAN_MOTION_DDOT":0},{"OBJECT_NAME":"COSMOS 1933","OBJECT_ID":"1988-020A","EPOCH":"2026-03-02T22:25:31.277856","MEAN_MOTION":15.17910219,"ECCENTRICITY":0.0003344,"INCLINATION":82.5095,"RA_OF_ASC_NODE":257.5977,"ARG_OF_PERICENTER":207.9516,"MEAN_ANOMALY":152.1538,"EPHEMERIS_TYPE":0,"CLASSIFICATION_TYPE":"U","NORAD_CAT_ID":18958,"ELEMENT_SET_NO":999,"REV_AT_EPOCH":4920,"BSTAR":0.0002392,"MEAN_MOTION_DOT":4.879e-5,"MEAN_MOTION_DDOT":0},{"OBJECT_NAME":"SL-3 R/B","OBJECT_ID":"1988-032B","EPOCH":"2026-03-03T03:34:17.527872","MEAN_MOTION":15.19814164,"ECCENTRICITY":0.0024092,"INCLINATION":97.5178,"RA_OF_ASC_NODE":45.4232,"ARG_OF_PERICENTER":256.0471,"MEAN_ANOMALY":103.8084,"EPHEMERIS_TYPE":0,"CLASSIFICATION_TYPE":"U","NORAD_CAT_ID":19046,"ELEMENT_SET_NO":999,"REV_AT_EPOCH":5111,"BSTAR":0.00031746,"MEAN_MOTION_DOT":6.783e-5,"MEAN_MOTION_DDOT":0},{"OBJECT_NAME":"SL-16 R/B","OBJECT_ID":"1988-039B","EPOCH":"2026-03-03T03:29:25.036224","MEAN_MOTION":14.19615543,"ECCENTRICITY":0.0022385,"INCLINATION":71.0129,"RA_OF_ASC_NODE":82.3869,"ARG_OF_PERICENTER":344.0142,"MEAN_ANOMALY":16.0274,"EPHEMERIS_TYPE":0,"CLASSIFICATION_TYPE":"U","NORAD_CAT_ID":19120,"ELEMENT_SET_NO":999,"REV_AT_EPOCH":95745,"BSTAR":7.1058e-5,"MEAN_MOTION_DOT":1.02e-6,"MEAN_MOTION_DDOT":0}]
